SWARM A                 
1 39452U 13067B   26166.21946015  .00008903  00000+0  15315-3 0  9996
2 39452  87.3330  56.9734 0003005  94.7814 265.3790 15.50920364705946
SWARM C                 
1 39453U 13067C   26166.09029896  .00009867  00000+0  16982-3 0  9993
2 39453  87.3330  55.6025 0003001  95.2152 264.9452 15.50916759705889
BRITE-CA1 (TORONTO)     
1 40020U 14033L   26166.27122621  .00000599  00000+0  97851-4 0  9997
2 40020  97.9736 295.2345 0077247 283.2628  75.9972 14.72674193641933
OCO 2                   
1 40059U 14035A   26166.30140267  .00000335  00000+0  84365-4 0  9995
2 40059  98.2018 107.6231 0001501  85.9948 274.1422 14.57109842635779
BRITE-PL2 (HEWELIUSZ)   
1 40119U 14049B   26166.29777390  .00001359  00000+0  13089-3 0  9999
2 40119  97.9096 278.2832 0015223 114.0820 246.1994 14.94587421641166
MMS 1                   
1 40482U 15011A   26166.33335648 -.00000633  00000+0  00000+0 0  9993
2 40482  72.1850 348.7810 8322302 167.3885 109.3813  0.28357473  1399
MMS 2                   
1 40483U 15011B   26166.33335648 -.00000633  00000+0  00000+0 0  9994
2 40483  72.1851 348.7832 8323086 167.3941 109.3700  0.28357496  1398
MMS 3                   
1 40484U 15011C   26166.33335648 -.00000633  00000+0  00000+0 0  9995
2 40484  72.1882 348.7877 8322267 167.3886 109.3656  0.28357457  1397
MMS 4                   
1 40485U 15011D   26166.33335648 -.00000633  00000+0  00000+0 0  9996
2 40485  72.1843 348.7835 8321877 167.3964 109.3541  0.28357451  1399
ASTROSAT                
1 40930U 15052A   26166.20782047  .00001433  00000+0  92810-4 0  9994
2 40930   5.9955 169.6016 0007849   2.4786 357.5380 14.82504217579539
DAMPE                   
1 41173U 15078A   26166.27273310  .00001527  00000+0  53841-4 0  9992
2 41173  97.4552 171.7303 0013831  83.1231 277.1583 15.30782160584256
PISAT                   
1 41784U 16059B   26165.96430915  .00000754  00000+0  13601-3 0  9991
2 41784  97.8179 166.5126 0028188 210.0908 149.8680 14.68980131519418
HXMT (HUIYAN)           
1 42758U 17034A   26166.29254778  .00002665  00000+0  13717-3 0  9996
2 42758  43.0126 193.5911 0030407 134.7573 225.5757 15.18467950497376
FLYING LAPTOP           
1 42831U 17042G   26166.31910302  .00003152  00000+0  24959-3 0  9994
2 42831  97.4674 321.9235 0019545 127.8462 232.4535 15.01134999486178
ZHANGHENG 1-01 (CSES-1) 
1 43194U 18015C   26166.29668444  .00005478  00000+0  25096-3 0  9998
2 43194  97.6863 331.9164 0017029 273.5631  86.3656 15.20789583464359
SALSAT                  
1 46495U 20068K   26165.98698011  .00006897  00000+0  24187-3 0  9990
2 46495  97.8843 168.9176 0008203 317.5916  42.4688 15.29772719315025
IXPE                    
1 49954U 21121A   26166.33335648  .00008684  00000+0  46036-3 0  9991
2 49954   0.2318 331.8952 0007257  47.1972 239.9045 15.10236983  5891
SMILE                   
1 69123U 26109A   26144.65318427 -.00001976  00000+0 -42379-3 0  9994
2 69123  70.0007 229.2745 0009123 259.5159 100.4951 14.57062785   802
